NORAD_CAT_ID,OBJECT_NAME,OBJECT_TYPE,EPOCH,MEAN_MOTION,ECCENTRICITY,INCLINATION,RA_OF_ASC_NODE,ARG_OF_PERICENTER,MEAN_ANOMALY,BSTAR,MEAN_MOTION_DOT,MEAN_MOTION_DDOT,TLE_LINE0,TLE_LINE1,TLE_LINE2,SEMIMAJOR_AXIS,PERIOD,APOGEE,PERIGEE,DECAYED
53706.0,STARLINK-4716,PAYLOAD,2023-02-12 06:06:04,15.08842549,0.0001175,53.2153,238.5438,91.9745,268.1382,0.00011838,1.597e-05,0.0,0 STARLINK-4716,1 53706U 22107G   23043.25422429  .00001597  00000-0  11838-3 0  9991,2 53706  53.2153 238.5438 0001175  91.9745 268.1382 15.08842549 24804,6917.873,95.437,540.55,538.925,0.0
53706.0,STARLINK-4716,PAYLOAD,2023-02-12 12:27:37,15.08833882,0.0001238,53.2152,237.3541,95.7402,264.3731,6.1515e-05,6.91e-06,0.0,0 STARLINK-4716,1 53706U 22107G   23043.51918972  .00000691  00000-0  61515-4 0  9995,2 53706  53.2152 237.3541 0001238  95.7402 264.3731 15.08833882 25590,6917.899,95.438,540.621,538.908,0.0
53706.0,STARLINK-4716,PAYLOAD,2023-02-12 14:03:01,15.08835036,0.0001232,53.2152,237.0568,94.3252,265.7881,7.9679e-05,9.8e-06,0.0,0 STARLINK-4716,1 53706U 22107G   23043.58542946  .00000980  00000-0  79679-4 0  9997,2 53706  53.2152 237.0568 0001232  94.3252 265.7881 15.08835036 24850,6917.896,95.438,540.613,538.908,0.0
53706.0,STARLINK-4716,PAYLOAD,2023-02-12 21:59:56,15.08843849,0.0001202,53.2151,235.5697,86.0158,274.0972,0.00017791,2.545e-05,0.0,0 STARLINK-4716,1 53706U 22107G   23043.91662604  .00002545  00000-0  17791-3 0  9993,2 53706  53.2151 235.5697 0001202  86.0158 274.0972 15.08843849 24906,6917.869,95.437,540.565,538.902,0.0
53706.0,STARLINK-4716,PAYLOAD,2023-02-13 12:18:24,15.08838744,0.0001135,53.215,232.8934,84.8929,275.2193,0.00014281,1.986e-05,0.0,0 STARLINK-4716,1 53706U 22107G   23044.51278903  .00001986  00000-0  14281-3 0  9994,2 53706  53.2150 232.8934 0001135  84.8929 275.2193 15.08838744 24991,6917.884,95.438,540.534,538.964,0.0
53706.0,STARLINK-4716,PAYLOAD,2023-02-14 12:09:12,15.08837906,0.0001192,53.2152,228.4326,87.6452,272.4676,0.00014857,2.077e-05,0.0,0 STARLINK-4716,1 53706U 22107G   23045.50639128  .00002077  00000-0  14857-3 0  9995,2 53706  53.2152 228.4326 0001192  87.6452 272.4676 15.08837906 25898,6917.887,95.438,540.576,538.927,0.0
53706.0,STARLINK-4716,PAYLOAD,2023-02-14 18:30:44,15.08841813,0.0001206,53.2149,227.243,89.7729,270.3401,0.00017246,2.458e-05,0.0,0 STARLINK-4716,1 53706U 22107G   23045.77134912  .00002458  00000-0  17246-3 0  9993,2 53706  53.2149 227.2430 0001206  89.7729 270.3401 15.08841813 25180,6917.875,95.437,540.574,538.906,0.0
53706.0,STARLINK-4716,PAYLOAD,2023-02-15 11:59:59,15.08828016,0.0001132,53.2152,223.972,94.1048,266.0073,3.8615e-05,3.27e-06,0.0,0 STARLINK-4716,1 53706U 22107G   23046.49999988  .00000327  00000-0  38615-4 0  9992,2 53706  53.2152 223.9720 0001132  94.1048 266.0073 15.08828016 25290,6917.917,95.438,540.565,538.999,0.0
53706.0,STARLINK-4716,PAYLOAD,2023-02-15 18:21:32,15.0883707,0.0001201,53.2146,222.7828,79.2733,280.8395,0.00011221,1.498e-05,0.0,0 STARLINK-4716,1 53706U 22107G   23046.76495794  .00001498  00000-0  11221-3 0  9991,2 53706  53.2146 222.7828 0001201  79.2733 280.8395 15.08837070 26080,6917.889,95.438,540.585,538.924,0.0
53706.0,STARLINK-4716,PAYLOAD,2023-02-16 11:50:46,15.08850975,0.0001195,53.2147,219.5113,80.2673,279.8454,0.00040216,6.12e-05,0.0,0 STARLINK-4716,1 53706U 22107G   23047.49359270  .00006120  00000-0  40216-3 0  9993,2 53706  53.2147 219.5113 0001195  80.2673 279.8454 15.08850975 25441,6917.847,95.437,540.539,538.885,0.0
53706.0,STARLINK-4716,PAYLOAD,2023-02-16 21:23:04,15.08871218,0.0001195,53.2144,217.7274,76.7605,283.3521,0.0009734,0.00015251,0.0,0 STARLINK-4716,1 53706U 22107G   23047.89102630  .00015251  00000-0  97340-3 0  9998,2 53706  53.2144 217.7274 0001195  76.7605 283.3521 15.08871218 26259,6917.785,95.436,540.477,538.823,0.0
53706.0,STARLINK-4716,PAYLOAD,2023-02-17 11:41:33,15.08846999,0.000127,53.2134,215.0491,91.2687,268.8451,-4.8282e-05,-1.056e-05,0.0,0 STARLINK-4716,1 53706U 22107G   23048.48718801 -.00001056  00000-0 -48282-4 0  9999,2 53706  53.2134 215.0491 0001270  91.2687 268.8451 15.08846999 25590,6917.859,95.437,540.603,538.845,0.0
53706.0,STARLINK-4716,PAYLOAD,2023-02-17 18:03:05,15.08847758,0.0001155,53.2124,213.8601,81.1246,278.9877,5.4862e-05,5.86e-06,0.0,0 STARLINK-4716,1 53706U 22107G   23048.75214713  .00000586  00000-0  54862-4 0  9998,2 53706  53.2124 213.8601 0001155  81.1246 278.9877 15.08847758 26385,6917.857,95.437,540.521,538.923,0.0
53706.0,STARLINK-4716,PAYLOAD,2023-02-18 11:32:20,15.08835264,0.0001072,53.2143,210.5918,82.0612,278.0502,2.4611e-05,1.04e-06,0.0,0 STARLINK-4716,1 53706U 22107G   23049.48079180  .00000104  00000-0  24611-4 0  9991,2 53706  53.2143 210.5918 0001072  82.0612 278.0502 15.08835264 25740,6917.895,95.438,540.501,539.018,0.0
53706.0,STARLINK-4716,PAYLOAD,2023-02-19 14:33:53,15.08844166,0.0001148,53.2152,205.5364,82.2521,277.8602,0.00022848,3.351e-05,0.0,0 STARLINK-4716,1 53706U 22107G   23050.60687186  .00003351  00000-0  22848-3 0  9994,2 53706  53.2152 205.5364 0001148  82.2521 277.8602 15.08844166 25912,6917.868,95.437,540.527,538.938,0.0
53706.0,STARLINK-4716,PAYLOAD,2023-02-20 12:49:17,15.08843132,0.0001236,53.2156,201.3732,79.6492,280.4639,0.00013787,1.907e-05,0.0,0 STARLINK-4716,1 53706U 22107G   23051.53423169  .00001907  00000-0  13787-3 0  9993,2 53706  53.2156 201.3732 0001236  79.6492 280.4639 15.08843132 26052,6917.871,95.437,540.591,538.881,0.0
53706.0,STARLINK-4716,PAYLOAD,2023-02-20 20:46:12,15.0885542,0.0001219,53.217,199.8868,82.4345,277.6786,0.00030783,4.617e-05,0.0,0 STARLINK-4716,1 53706U 22107G   23051.86542562  .00004617  00000-0  30783-3 0  9994,2 53706  53.2170 199.8868 0001219  82.4345 277.6786 15.08855420 26109,6917.833,95.437,540.542,538.855,0.0
53706.0,STARLINK-4716,PAYLOAD,2023-02-21 12:40:04,15.08845251,0.0001255,53.2176,196.9147,80.1608,279.9525,8.9943e-05,1.144e-05,0.0,0 STARLINK-4716,1 53706U 22107G   23052.52783001  .00001144  00000-0  89943-4 0  9998,2 53706  53.2176 196.9147 0001255  80.1608 279.9525 15.08845251 26950,6917.864,95.437,540.598,538.861,0.0
53706.0,STARLINK-4716,PAYLOAD,2023-02-21 15:50:50,15.08850095,0.0001361,53.2174,196.3197,82.6989,277.4158,0.0001522,2.136e-05,0.0,0 STARLINK-4716,1 53706U 22107G   23052.66030739  .00002136  00000-0  15220-3 0  9994,2 53706  53.2174 196.3197 0001361  82.6989 277.4158 15.08850095 26221,6917.85,95.437,540.656,538.773,0.0
53706.0,STARLINK-4716,PAYLOAD,2023-02-21 19:01:36,15.08852432,0.0001436,53.2168,195.7241,77.8731,282.2422,0.00024278,3.579e-05,0.0,0 STARLINK-4716,1 53706U 22107G   23052.79278574  .00003579  00000-0  24278-3 0  9994,2 53706  53.2168 195.7241 0001436  77.8731 282.2422 15.08852432 26990,6917.842,95.437,540.701,538.714,0.0
53706.0,STARLINK-4716,PAYLOAD,2023-02-22 09:20:05,15.08841313,0.000119,53.2168,193.0471,86.4193,273.6935,5.8903e-05,6.5e-06,0.0,0 STARLINK-4716,1 53706U 22107G   23053.38894835  .00000650  00000-0  58903-4 0  9994,2 53706  53.2168 193.0471 0001190  86.4193 273.6935 15.08841313 26338,6917.876,95.437,540.565,538.918,0.0
53706.0,STARLINK-4716,PAYLOAD,2023-02-22 12:30:51,15.08843423,0.0001233,53.2169,192.4526,89.891,270.2224,0.00012259,1.664e-05,0.0,0 STARLINK-4716,1 53706U 22107G   23053.52142750  .00001664  00000-0  12259-3 0  9991,2 53706  53.2169 192.4526 0001233  89.8910 270.2224 15.08843423 27109,6917.87,95.437,540.588,538.882,0.0
53706.0,STARLINK-4716,PAYLOAD,2023-02-22 20:27:46,15.08855427,0.0001308,53.2169,190.9657,86.2517,273.8624,0.00068317,0.00010606,0.0,0 STARLINK-4716,1 53706U 22107G   23053.85262547  .00010606  00000-0  68317-3 0  9996,2 53706  53.2169 190.9657 0001308  86.2517 273.8624 15.08855427 27159,6917.833,95.437,540.603,538.793,0.0
53706.0,STARLINK-4716,PAYLOAD,2023-02-23 13:57:01,15.08843615,0.0001082,53.217,187.6953,89.2856,270.826,0.0013609,0.00021439,0.0,0 STARLINK-4716,1 53706U 22107G   23054.58127168  .00021439  00000-0  13609-2 0  9995,2 53706  53.2170 187.6953 0001082  89.2856 270.8260 15.08843615 26519,6917.869,95.437,540.483,538.986,0.0
53706.0,STARLINK-4716,PAYLOAD,2023-02-23 20:18:34,15.08856551,0.0001157,53.217,186.5058,85.2437,274.8687,0.0016108,0.00025452,0.0,0 STARLINK-4716,1 53706U 22107G   23054.84622983  .00025452  00000-0  16108-2 0  9995,2 53706  53.2170 186.5058 0001157  85.2437 274.8687 15.08856551 27305,6917.83,95.437,540.495,538.894,0.0
53706.0,STARLINK-4716,PAYLOAD,2023-02-24 12:12:26,15.08842994,0.000123,53.217,183.5321,103.1182,256.9948,0.00086117,0.00013445,0.0,0 STARLINK-4716,1 53706U 22107G   23055.50863446  .00013445  00000-0  86117-3 0  9997,2 53706  53.2170 183.5321 0001230 103.1182 256.9948 15.08842994 27402,6917.871,95.437,540.587,538.885,0.0
53706.0,STARLINK-4716,PAYLOAD,2023-02-24 13:47:49,15.08845338,0.0001181,53.217,183.2354,106.7722,253.34,0.0012431,0.00019554,0.0,0 STARLINK-4716,1 53706U 22107G   23055.57487431  .00019554  00000-0  12431-2 0  9994,2 53706  53.2170 183.2354 0001181 106.7722 253.3400 15.08845338 26665,6917.864,95.437,540.546,538.912,0.0
53706.0,STARLINK-4716,PAYLOAD,2023-02-24 18:33:58,15.08856234,0.0001179,53.2168,182.3434,102.5737,257.5387,0.0016117,0.00025467,0.0,0 STARLINK-4716,1 53706U 22107G   23055.77359278  .00025467  00000-0  16117-2 0  9998,2 53706  53.2168 182.3434 0001179 102.5737 257.5387 15.08856234 27442,6917.831,95.437,540.511,538.88,0.0
53706.0,STARLINK-4716,PAYLOAD,2023-02-25 00:55:31,15.08845203,0.0001628,53.2171,181.1521,73.7496,286.3675,0.0010298,0.00016142,0.0,0 STARLINK-4716,1 53706U 22107G   23056.03855697  .00016142  00000-0  10298-2 0  9998,2 53706  53.2171 181.1521 0001628  73.7496 286.3675 15.08845203 26735,6917.864,95.437,540.856,538.603,0.0
53706.0,STARLINK-4716,PAYLOAD,2023-02-25 12:03:13,15.0882786,0.0001378,53.218,179.0746,108.6958,251.4184,0.00056117,8.651e-05,0.0,0 STARLINK-4716,1 53706U 22107G   23056.50224012  .00008651  00000-0  56117-3 0  9998,2 53706  53.2180 179.0746 0001378 108.6958 251.4184 15.08827860 26808,6917.917,95.438,540.736,538.829,0.0
